start=new Date('2021-10-09T00:00:00.000Z').valueOf();
sats=[{"PERIAPSIS":"546.061","RCS_SIZE":"LARGE","TLE_LINE1":"1 45178U 20012A   21281.85402458  .00001288  00000-0  10531-3 0  9992","SITE":"AFETR","TLE_LINE2":"2 45178  53.0540  86.9147 0001645  85.2289 274.8888 15.06404350 91686","SEMIMAJOR_AXIS":"6925.335","FILE":"3152020","MEAN_ELEMENT_THEORY":"SGP4","EPOCH":"2021-10-08T20:29:47.723712","DECAY_DATE":null,"INCLINATION":"53.0540","GP_ID":"186594952","LAUNCH_DATE":"2020-02-17","MEAN_MOTION_DDOT":"0.0000000000000","REV_AT_EPOCH":"9168","MEAN_MOTION":"15.06404350","RA_OF_ASC_NODE":"86.9147","COUNTRY_CODE":"US","OBJECT_TYPE":"PAYLOAD","CLASSIFICATION_TYPE":"U","OBJECT_ID":"2020-012A","BSTAR":"0.00010531000000","ECCENTRICITY":"0.00016450","REF_FRAME":"TEME","NORAD_CAT_ID":"45178","OBJECT_NAME":"STARLINK-1138","APOAPSIS":"548.339","ARG_OF_PERICENTER":"85.2289","PERIOD":"95.592","MEAN_MOTION_DOT":"0.00001288","EPHEMERIS_TYPE":"0","CENTER_NAME":"EARTH","ELEMENT_SET_NO":"999","TIME_SYSTEM":"UTC","MEAN_ANOMALY":"274.8888"},{"ELEMENT_SET_NO":"999","TIME_SYSTEM":"UTC","MEAN_ANOMALY":"262.8743","EPHEMERIS_TYPE":"0","CENTER_NAME":"EARTH","REF_FRAME":"TEME","NORAD_CAT_ID":"45179","OBJECT_NAME":"STARLINK-1143","APOAPSIS":"548.690","PERIOD":"95.592","ARG_OF_PERICENTER":"97.2487","MEAN_MOTION_DOT":"-0.00000900","CLASSIFICATION_TYPE":"U","OBJECT_ID":"2020-012B","BSTAR":"-0.00004154100000","ECCENTRICITY":"0.00021160","RA_OF_ASC_NODE":"86.9167","MEAN_MOTION":"15.06396347","COUNTRY_CODE":"US","OBJECT_TYPE":"PAYLOAD","EPOCH":"2021-10-08T20:35:05.800992","DECAY_DATE":null,"INCLINATION":"53.0553","GP_ID":"186593704","LAUNCH_DATE":"2020-02-17","MEAN_MOTION_DDOT":"0.0000000000000","REV_AT_EPOCH":"9174","SEMIMAJOR_AXIS":"6925.360","FILE":"3152020","MEAN_ELEMENT_THEORY":"SGP4","PERIAPSIS":"545.759","RCS_SIZE":"LARGE","TLE_LINE1":"1 45179U 20012B   21281.85770603 -.00000900  00000-0 -41541-4 0  9991","TLE_LINE2":"2 45179  53.0553  86.9167 0002116  97.2487 262.8743 15.06396347 91740","SITE":"AFETR"},{"ELEMENT_SET_NO":"999","TIME_SYSTEM":"UTC","MEAN_ANOMALY":"250.5428","EPHEMERIS_TYPE":"0","CENTER_NAME":"EARTH","OBJECT_NAME":"STARLINK-1192","APOAPSIS":"548.555","NORAD_CAT_ID":"45180","REF_FRAME":"TEME","MEAN_MOTION_DOT":"-0.00000737","ARG_OF_PERICENTER":"109.5767","PERIOD":"95.593","CLASSIFICATION_TYPE":"U","BSTAR":"-0.00003060500000","ECCENTRICITY":"0.00019090","OBJECT_ID":"2020-012C","COUNTRY_CODE":"US","RA_OF_ASC_NODE":"86.9532","MEAN_MOTION":"15.06393747","OBJECT_TYPE":"PAYLOAD","INCLINATION":"53.0532","GP_ID":"186593954","EPOCH":"2021-10-08T20:19:10.693056","DECAY_DATE":null,"MEAN_MOTION_DDOT":"0.0000000000000","REV_AT_EPOCH":"9174","LAUNCH_DATE":"2020-02-17","SEMIMAJOR_AXIS":"6925.368","MEAN_ELEMENT_THEORY":"SGP4","FILE":"3152020","TLE_LINE2":"2 45180  53.0532  86.9532 0001909 109.5767 250.5428 15.06393747 91747","SITE":"AFETR","RCS_SIZE":"LARGE","PERIAPSIS":"545.911","TLE_LINE1":"1 45180U 20012C   21281.84665154 -.00000737  00000-0 -30605-4 0  9993"},{"SEMIMAJOR_AXIS":"6925.369","FILE":"3152020","MEAN_ELEMENT_THEORY":"SGP4","SITE":"AFETR","TLE_LINE2":"2 45181  53.0538  86.9624 0001912  96.0884 264.0323 15.06393262 91746","PERIAPSIS":"545.910","RCS_SIZE":"LARGE","TLE_LINE1":"1 45181U 20012D   21281.84297009 -.00000709  00000-0 -28717-4 0  9994","COUNTRY_CODE":"US","RA_OF_ASC_NODE":"86.9624","MEAN_MOTION":"15.06393262","OBJECT_TYPE":"PAYLOAD","INCLINATION":"53.0538","GP_ID":"186594205","EPOCH":"2021-10-08T20:13:52.615776","DECAY_DATE":null,"MEAN_MOTION_DDOT":"0.0000000000000","REV_AT_EPOCH":"9174","LAUNCH_DATE":"2020-02-17","OBJECT_NAME":"STARLINK-1200","APOAPSIS":"548.558","NORAD_CAT_ID":"45181","REF_FRAME":"TEME","MEAN_MOTION_DOT":"-0.00000709","PERIOD":"95.593","ARG_OF_PERICENTER":"96.0884","CLASSIFICATION_TYPE":"U","BSTAR":"-0.00002871700000","ECCENTRICITY":"0.00019120","OBJECT_ID":"2020-012D","ELEMENT_SET_NO":"999","TIME_SYSTEM":"UTC","MEAN_ANOMALY":"264.0323","EPHEMERIS_TYPE":"0","CENTER_NAME":"EARTH"},{"MEAN_MOTION_DOT":"0.00000259","ARG_OF_PERICENTER":"101.4040","PERIOD":"95.592","OBJECT_NAME":"STARLINK-1201","APOAPSIS":"548.464","REF_FRAME":"TEME","NORAD_CAT_ID":"45182","BSTAR":"0.00003626800000","ECCENTRICITY":"0.00018020","OBJECT_ID":"2020-012E","CLASSIFICATION_TYPE":"U","MEAN_ANOMALY":"258.7151","ELEMENT_SET_NO":"999","TIME_SYSTEM":"UTC","EPHEMERIS_TYPE":"0","CENTER_NAME":"EARTH","FILE":"3152020","MEAN_ELEMENT_THEORY":"SGP4","SEMIMAJOR_AXIS":"6925.351","TLE_LINE2":"2 45182  53.0554  67.4808 0001802 101.4040 258.7151 15.06399045 91852","SITE":"AFETR","PERIAPSIS":"545.969","RCS_SIZE":"LARGE","TLE_LINE1":"1 45182U 20012E   21281.73053911  .00000259  00000-0  36268-4 0  9993","OBJECT_TYPE":"PAYLOAD","COUNTRY_CODE":"US","RA_OF_ASC_NODE":"67.4808","MEAN_MOTION":"15.06399045","MEAN_MOTION_DDOT":"0.0000000000000","REV_AT_EPOCH":"9185","LAUNCH_DATE":"2020-02-17","INCLINATION":"53.0554","GP_ID":"186594452","EPOCH":"2021-10-08T17:31:58.579104","DECAY_DATE":null},{"MEAN_MOTION_DDOT":"0.0000000000000","REV_AT_EPOCH":"9175","LAUNCH_DATE":"2020-02-17","INCLINATION":"53.0537","GP_ID":"186593204","EPOCH":"2021-10-08T21:06:56.534400","DECAY_DATE":null,"OBJECT_TYPE":"PAYLOAD","COUNTRY_CODE":"US","RA_OF_ASC_NODE":"86.8027","MEAN_MOTION":"15.06397890","TLE_LINE2":"2 45183  53.0537  86.8027 0001913  87.5320 272.5887 15.06397890 91755","SITE":"AFETR","PERIAPSIS":"545.895","RCS_SIZE":"LARGE","TLE_LINE1":"1 45183U 20012F   21281.87982100  .00000950  00000-0  82687-4 0  9994","MEAN_ELEMENT_THEORY":"SGP4","FILE":"3152020","SEMIMAJOR_AXIS":"6925.355","EPHEMERIS_TYPE":"0","CENTER_NAME":"EARTH","MEAN_ANOMALY":"272.5887","ELEMENT_SET_NO":"999","TIME_SYSTEM":"UTC","BSTAR":"0.00008268700000","ECCENTRICITY":"0.00019130","OBJECT_ID":"2020-012F","CLASSIFICATION_TYPE":"U","MEAN_MOTION_DOT":"0.00000950","ARG_OF_PERICENTER":"87.5320","PERIOD":"95.592","OBJECT_NAME":"STARLINK-1202","APOAPSIS":"548.545","REF_FRAME":"TEME","NORAD_CAT_ID":"45183"},{"MEAN_ANOMALY":"260.1751","TIME_SYSTEM":"UTC","ELEMENT_SET_NO":"999","CENTER_NAME":"EARTH","EPHEMERIS_TYPE":"0","PERIOD":"95.592","ARG_OF_PERICENTER":"99.9416","MEAN_MOTION_DOT":"0.00001396","NORAD_CAT_ID":"45184","REF_FRAME":"TEME","APOAPSIS":"548.301","OBJECT_NAME":"STARLINK-1205","OBJECT_ID":"2020-012G","ECCENTRICITY":"0.00015760","BSTAR":"0.00011259000000","CLASSIFICATION_TYPE":"U","OBJECT_TYPE":"PAYLOAD","RA_OF_ASC_NODE":"67.7387","MEAN_MOTION":"15.06401242","COUNTRY_CODE":"US","LAUNCH_DATE":"2020-02-17","REV_AT_EPOCH":"9103","MEAN_MOTION_DDOT":"0.0000000000000","DECAY_DATE":null,"EPOCH":"2021-10-08T16:07:02.848800","GP_ID":"186593454","INCLINATION":"53.0540","FILE":"3152020","MEAN_ELEMENT_THEORY":"SGP4","SEMIMAJOR_AXIS":"6925.345","TLE_LINE1":"1 45184U 20012G   21281.67156075  .00001396  00000-0  11259-3 0  9998","RCS_SIZE":"LARGE","PERIAPSIS":"546.118","TLE_LINE2":"2 45184  53.0540  67.7387 0001576  99.9416 260.1751 15.06401242 91036","SITE":"AFETR"},{"COUNTRY_CODE":"US","RA_OF_ASC_NODE":"86.8366","MEAN_MOTION":"15.06400593","OBJECT_TYPE":"PAYLOAD","INCLINATION":"53.0544","GP_ID":"186594706","EPOCH":"2021-10-08T20:56:19.836384","DECAY_DATE":null,"MEAN_MOTION_DDOT":"0.0000000000000","REV_AT_EPOCH":"9169","LAUNCH_DATE":"2020-02-17","SEMIMAJOR_AXIS":"6925.347","FILE":"3152020","MEAN_ELEMENT_THEORY":"SGP4","TLE_LINE2":"2 45185  53.0544  86.8366 0002304  93.9552 266.1700 15.06400593 91695","SITE":"AFETR","RCS_SIZE":"LARGE","PERIAPSIS":"545.616","TLE_LINE1":"1 45185U 20012H   21281.87245181 -.00000196  00000-0  57619-5 0  9998","ELEMENT_SET_NO":"999","TIME_SYSTEM":"UTC","MEAN_ANOMALY":"266.1700","EPHEMERIS_TYPE":"0","CENTER_NAME":"EARTH","OBJECT_NAME":"STARLINK-1216","APOAPSIS":"548.807","REF_FRAME":"TEME","NORAD_CAT_ID":"45185","MEAN_MOTION_DOT":"-0.00000196","ARG_OF_PERICENTER":"93.9552","PERIOD":"95.592","CLASSIFICATION_TYPE":"U","BSTAR":"0.00000576190000","ECCENTRICITY":"0.00023040","OBJECT_ID":"2020-012H"},{"MEAN_ELEMENT_THEORY":"SGP4","FILE":"3152020","SEMIMAJOR_AXIS":"6925.357","RCS_SIZE":"LARGE","PERIAPSIS":"545.786","TLE_LINE1":"1 45186U 20012J   21281.75450455 -.00000355  00000-0 -49007-5 0  9998","SITE":"AFETR","TLE_LINE2":"2 45186  53.0545  87.3659 0002073  89.8309 270.2917 15.06397344 91678","OBJECT_TYPE":"PAYLOAD","RA_OF_ASC_NODE":"87.3659","MEAN_MOTION":"15.06397344","COUNTRY_CODE":"US","LAUNCH_DATE":"2020-02-17","MEAN_MOTION_DDOT":"0.0000000000000","REV_AT_EPOCH":"9167","EPOCH":"2021-10-08T18:06:29.193120","DECAY_DATE":null,"INCLINATION":"53.0545","GP_ID":"186594953","PERIOD":"95.592","ARG_OF_PERICENTER":"89.8309","MEAN_MOTION_DOT":"-0.00000355","NORAD_CAT_ID":"45186","REF_FRAME":"TEME","OBJECT_NAME":"STARLINK-1224","APOAPSIS":"548.657","OBJECT_ID":"2020-012J","BSTAR":"-0.00000490070000","ECCENTRICITY":"0.00020730","CLASSIFICATION_TYPE":"U","MEAN_ANOMALY":"270.2917","ELEMENT_SET_NO":"999","TIME_SYSTEM":"UTC","EPHEMERIS_TYPE":"0","CENTER_NAME":"EARTH"},{"ARG_OF_PERICENTER":"93.9929","PERIOD":"95.593","MEAN_MOTION_DOT":"-0.00000665","NORAD_CAT_ID":"45187","REF_FRAME":"TEME","OBJECT_NAME":"STARLINK-1225","APOAPSIS":"548.547","OBJECT_ID":"2020-012K","BSTAR":"-0.00002572100000","ECCENTRICITY":"0.00018950","CLASSIFICATION_TYPE":"U","MEAN_ANOMALY":"266.1277","ELEMENT_SET_NO":"999","TIME_SYSTEM":"UTC","EPHEMERIS_TYPE":"0","CENTER_NAME":"EARTH","MEAN_ELEMENT_THEORY":"SGP4","FILE":"3152020","SEMIMAJOR_AXIS":"6925.369","RCS_SIZE":"LARGE","PERIAPSIS":"545.922","TLE_LINE1":"1 45187U 20012K   21281.75819189 -.00000665  00000-0 -25721-4 0  9992","SITE":"AFETR","TLE_LINE2":"2 45187  53.0534  87.3521 0001895  93.9929 266.1277 15.06393169 91720","OBJECT_TYPE":"PAYLOAD","RA_OF_ASC_NODE":"87.3521","MEAN_MOTION":"15.06393169","COUNTRY_CODE":"US","LAUNCH_DATE":"2020-02-17","MEAN_MOTION_DDOT":"0.0000000000000","REV_AT_EPOCH":"9172","EPOCH":"2021-10-08T18:11:47.779296","DECAY_DATE":null,"INCLINATION":"53.0534","GP_ID":"186593705"}];
